P/2011 S1 (Gibbs),e,2.6869,218.8364,192.4582,8.582903,0.0391970,0.20134538,113.2133,07/11.0/2022,2000,g  8.0,4.0
# From MPC 79022
P/2011 UA134 (Spacewatch-PANSTARRS),e,10.4405,40.4001,32.4001,5.609327,0.0741887,0.62967204,289.3603,07/11.0/2022,2000,g 17.5,4.0
# From MPC 77406
P/2011 V1 (Boattini),e,7.3749,46.7911,269.3669,3.856806,0.1301255,0.55025232,179.2626,07/11.0/2022,2000,g 15.5,4.0
# From MPC 82718
P/2011 W1 (PANSTARRS),e,3.7186,161.7845,282.7631,4.664865,0.0978240,0.28786286,14.9885,07/11.0/2022,2000,g 11.5,4.0
# From MPC 79342
P/2011 Y2 (Boattini),e,6.3758,309.3397,131.9324,6.238640,0.0632513,0.71008355,239.1576,07/11.0/2022,2000,g 15.0,4.0
# From MPEC 2022-K19
P/2012 B1 (PANSTARRS),e,7.6102,36.2164,162.4267,6.531503,0.0590452,0.40893794,194.0136,07/11.0/2022,2000,g  9.0,4.0
# From MPC 78590
P/2012 C3 (PANSTARRS),e,9.0920,135.3677,344.9542,9.748681,0.0323806,0.63011148,359.9758,10/06.0/2011,2000,g 13.0,4.0
# From MPC 84931
P/2012 F2 (PANSTARRS),e,14.7036,226.9943,33.3250,6.334396,0.0618225,0.54134980,208.9011,07/11.0/2022,2000,g 12.0,4.0
# From MPEC 2022-ED3
P/2012 G1 (PANSTARRS),e,12.1741,283.2786,266.0954,4.164780,0.1159621,0.32955541,75.2337,07/11.0/2022,2000,g 15.0,4.0
# From MPC 80898
P/2012 K3 (Gibbs),e,13.1919,125.8163,172.2371,3.627662,0.1426474,0.42283680,151.0265,07/11.0/2022,2000,g 15.0,4.0
# From MPC 88326
P/2012 NJ (La Sagra),e,84.6162,315.5699,338.3781,8.464998,0.0400188,0.84686714,147.1939,07/11.0/2022,2000,g 14.5,4.0
# From MPC 81470
P/2012 O1 (McNaught),e,7.4282,91.9472,238.3025,3.541405,0.1478906,0.59444914,181.3300,07/11.0/2022,2000,g 17.5,4.0
# From MPC 80899
P/2012 O2 (McNaught),e,24.4759,120.6844,183.4706,3.625589,0.1427697,0.53227262,165.8960,07/11.0/2022,2000,g 17.0,4.0
# From MPEC 2022-N37
P/2012 O3 (McNaught),e,16.6154,336.4142,344.7510,4.574575,0.1007344,0.64719374,4.2668,07/11.0/2022,2000,g 16.5,4.0
# From MPC 82320
P/2012 T2 (PANSTARRS),e,12.5650,73.7156,310.6423,5.730245,0.0718529,0.16210947,241.5239,07/11.0/2022,2000,g 10.0,4.0
# From MPC 80900
P/2012 T3 (PANSTARRS),e,9.5616,114.3838,195.5248,6.151012,0.0646077,0.61695590,240.2269,07/11.0/2022,2000,g 15.0,4.0
# From MPEC 2022-L66
C/2012 T4 (McNaught),e,24.1071,99.3253,219.9569,223.0409,0.0002959,0.99124614,0.0000,10/15.1543/2012,2000,g 13.5,4.0
# From MPC 82720
P/2012 U2 (PANSTARRS),e,10.7592,185.3227,228.2419,7.134016,0.0517253,0.49954822,182.4239,07/11.0/2022,2000,g 12.5,4.0
# From MPC 84024
P/2012 US27 (Siding Spring),e,39.3639,49.1991,0.8114,5.165634,0.0839496,0.64811248,290.0411,07/11.0/2022,2000,g 13.5,4.0
# From MPEC 2022-L66
C/2012 V1 (PANSTARRS),e,157.8350,85.5301,123.6669,1568,0.0000159,0.99865025,0.0000,07/18.5156/2013,2000,g 12.0,4.0
# From MPC 82721
P/2012 WA34 (Lemmon-PANSTARRS),e,6.0793,93.5978,356.3939,4.689212,0.0970631,0.34470957,324.8802,07/11.0/2022,2000,g 13.5,4.0
# From MPC 82721
P/2013 AL76 (Catalina),e,144.8601,146.0000,27.0496,6.498190,0.0594998,0.68621408,208.6433,07/11.0/2022,2000,g 16.0,4.0
# From MPEC 2022-K19
P/2013 EW90,e,31.7922,160.2944,346.1324,4.113608,0.1181326,0.19464692,60.4262,07/11.0/2022,2000,g 14.3,4.0
# From MPC 91612
P/2013 G1 (Kowalski),e,5.4596,221.3302,51.5309,6.895202,0.0544357,0.51170607,170.6113,07/11.0/2022,2000,g 11.0,4.0
# From MPC 84025
P/2013 G4 (PANSTARRS),e,5.9162,339.6376,214.6428,4.439598,0.1053631,0.40933751,2.2805,07/11.0/2022,2000,g 15.0,4.0
# From MPEC 2022-L66
C/2013 G5 (Catalina),e,40.8507,143.9319,165.9253,2823,0.0000066,0.99967084,0.0000,09/04.3153/2013,2000,g 14.0,4.0
# From MPC 91613
P/2013 J2 (McNaught),e,15.5177,289.3723,37.8357,6.222786,0.0634931,0.65754665,205.4669,07/11.0/2022,2000,g 13.0,4.0
# From MPEC 2022-N37
C/2013 J5 (Boattini),h,12/03.5822/2012,135.9543,256.8225,19.4331,1.002159,4.923000,2000,10.0,4.0
# From MPC 86229
P/2013 N3 (PANSTARRS),e,2.1739,17.4652,323.9555,7.393704,0.0490243,0.59323779,150.2556,07/11.0/2022,2000,g 13.0,4.0
# From MPC 85834
P/2013 N5 (PANSTARRS),e,23.4598,187.1553,176.9287,6.797230,0.0556168,0.73250689,183.0582,07/11.0/2022,2000,g 17.0,4.0
# From MPC 85834
P/2013 P1 (PANSTARRS),e,18.7253,160.5895,138.2390,8.579176,0.0392225,0.60506237,134.0955,07/11.0/2022,2000,g 12.0,4.0
# From MPC 94671
P/2013 R3 (Catalina-PANSTARRS),e,0.8649,341.9836,11.2613,3.032579,0.1866319,0.27554762,244.6384,07/11.0/2022,2000,g 14.0,4.0
# From unp
P/2013 R3-A (Catalina-PANSTARRS),e,0.8643,341.9504,11.3003,3.032436,0.1866451,0.27551725,244.6784,07/11.0/2022,2000,g  9.0,4.0
# From MPEC 2015-M77
P/2013 R3-B (Catalina-PANSTARRS),e,0.8655,342.0063,11.2352,3.032656,0.1866248,0.27556255,244.6169,07/11.0/2022,2000,g  9.0,4.0
# From MPC 85835
P/2013 T1 (PANSTARRS),e,24.3023,10.0803,346.1479,5.857747,0.0695197,0.62428187,226.6679,07/11.0/2022,2000,g 16.5,4.0
# From MPC 86643
P/2013 T2 (Schwartz),e,9.4578,0.7999,345.5654,3.491401,0.1510791,0.50119224,143.9945,07/11.0/2022,2000,g 16.0,4.0
# From MPC 91613
P/2013 W1 (PANSTARRS),e,4.6959,117.8433,1.2429,3.488133,0.1512915,0.59276396,101.1827,07/11.0/2022,2000,g 17.5,4.0
# From MPC101095
P/2013 YG46 (Spacewatch),e,7.8573,48.8363,242.5901,3.274366,0.1663463,0.45471329,330.1798,07/11.0/2022,2000,g 10.0,4.0
# From MPC 89728
P/2014 A2 (Hill),e,24.5396,106.6306,356.1542,5.927512,0.0682960,0.64546715,218.2623,07/11.0/2022,2000,g 15.0,4.0
# From MPC 92981
P/2014 A3 (PANSTARRS),e,13.7133,229.9776,214.0253,4.611022,0.0995424,0.24693038,331.6597,07/11.0/2022,2000,g 12.0,4.0
# From MPEC 2022-L66
C/2014 A5 (PANSTARRS),e,31.9739,310.0737,182.1013,80.73907,0.0013586,0.94075597,3.9335,07/11.0/2022,2000,g 10.0,4.0
# From MPEC 2022-HC2
C/2014 B1 (Schwartz),e,28.4115,161.4225,345.6388,3996,0.0000039,0.99761187,0.0000,09/06.2578/2017,2000,g  4.0,4.0
# From MPC102095
P/2014 C1 (TOTAS),e,2.6926,167.8052,23.8901,3.034274,0.1864755,0.45028964,220.5991,07/11.0/2022,2000,g 15.5,4.0
# From MPEC 2022-L66
C/2014 F2 (Tenagra),e,119.0070,267.3924,85.9917,153.4690,0.0005184,0.97199000,0.0000,01/05.4174/2015,2000,g  9.5,4.0
# From MPC 94280
C/2014 F3 (Sheppard-Trujillo),e,6.5602,326.5694,4.0783,14.81366,0.0172866,0.61558060,7.1744,07/11.0/2022,2000,g  6.0,4.0
# From MPEC 2022-M21
C/2014 G1 (PANSTARRS),e,165.6767,337.9635,77.4013,801.2680,0.0000435,0.99314062,0.0000,11/09.4379/2013,2000,g  9.0,4.0
# From MPC 98560
P/2014 L2 (NEOWISE),e,5.1998,149.3472,182.7033,6.304574,0.0622616,0.64813134,181.2662,07/11.0/2022,2000,g 12.0,4.0
# From MPC 90769
P/2014 L3 (Hill),e,6.2713,115.4860,178.6981,8.176002,0.0421592,0.77307526,123.6046,07/11.0/2022,2000,g 16.0,4.0
# From MPEC 2022-M88
C/2014 M2 (Christensen),e,32.3584,245.3685,40.6113,3282,0.0000052,0.99788377,0.0000,07/15.5698/2014,2000,g  6.0,4.0
# From MPC 91614
P/2014 M4 (PANSTARRS),e,3.3410,263.2042,148.0064,5.869790,0.0693059,0.59527219,190.7404,07/11.0/2022,2000,g 15.0,4.0
# From MPEC 2022-K19
P/2014 MG4 (Spacewatch-PANSTARRS),e,9.3685,311.7321,299.0702,5.012897,0.0878155,0.25905889,290.6586,07/11.0/2022,2000,g  9.5,4.0
# From MPC 98560
P/2014 O3 (PANSTARRS),e,7.7990,87.6432,204.7572,7.573549,0.0472884,0.38497000,142.0736,07/11.0/2022,2000,g 10.5,4.0
# From MPEC 2022-C56
C/2014 OG392 (PANSTARRS),e,9.0329,145.7960,254.2262,12.24744,0.0229951,0.18597580,5.0476,07/11.0/2022,2000,g  6.0,4.0
# From MPEC 2022-N51
P/2014 R5 (Lemmon-PANSTARRS),e,1.0885,126.5674,213.7456,4.059145,0.1205181,0.41403264,355.4372,07/11.0/2022,2000,g 15.0,4.0
# From MPEC 2022-M21
C/2014 S1 (PANSTARRS),e,123.6719,352.6222,288.6748,36975,0.0000001,0.99977998,0.0000,10/24.7417/2013,2000,g  7.0,4.0
# From MPEC 2022-L66
C/2014 S3 (PANSTARRS),e,169.3189,355.9420,292.9170,82.91286,0.0013055,0.97522927,0.0000,08/07.6916/2014,2000,g 17.0,4.0
# From MPEC 2022-M21
C/2014 U3 (Kowalski),e,152.8700,163.5667,50.8359,339.1773,0.0001578,0.99251070,0.0000,08/31.7230/2014,2000,g 14.5,4.0
# From MPC 91616
P/2014 U4 (PANSTARRS),e,6.4292,11.8845,347.8063,3.507951,0.1500113,0.46493435,76.8627,07/11.0/2022,2000,g 18.0,4.0
# From MPC 95211
P/2014 V1 (PANSTARRS),e,22.5278,166.2005,177.6347,5.479703,0.0768367,0.53452012,209.1734,07/11.0/2022,2000,g 14.0,4.0
# From MPC 93586
P/2014 W1 (PANSTARRS),e,8.8367,246.2393,152.1555,4.465044,0.1044637,0.38916034,305.0106,07/11.0/2022,2000,g 15.5,4.0
# From MPC105542
P/2014 W4 (PANSTARRS),e,15.2818,33.3821,67.6346,6.590875,0.0582491,0.35290727,138.9302,07/11.0/2022,2000,g 11.0,4.0
# From MPEC 2022-L66
C/2014 W5 (Lemmon-PANSTARRS),e,145.6783,245.6170,281.6564,106.2111,0.0009004,0.97723636,0.0000,02/08.7904/2016,2000,g 10.0,4.0
# From MPEC 2022-N37
C/2014 W10 (PANSTARRS),e,83.4084,43.1569,42.2270,5119,0.0000027,0.99850515,0.0000,02/15.2319/2016,2000,g  8.0,4.0
# From MPC 94281
P/2014 X1 (Elenin),e,26.0374,61.5485,33.8861,6.206065,0.0637499,0.70923930,175.2206,07/11.0/2022,2000,g 15.0,4.0
# From MPC 92275
P/2015 A3 (PANSTARRS),e,172.5378,277.2773,249.3979,7.813460,0.0451273,0.85051990,121.8895,07/11.0/2022,2000,g 20.0,4.0
# From MPC 99270
P/2015 B1 (PANSTARRS),e,18.0472,352.9409,188.8976,9.493520,0.0336948,0.36677586,84.0715,07/11.0/2022,2000,g  8.5,4.0
# From MPC109141
P/2015 B4 (Lemmon-PANSTARRS),e,1.7622,266.0473,227.3124,8.520420,0.0396289,0.56028113,107.6219,07/11.0/2022,2000,g 11.0,4.0
# From MPC101096
P/2015 C1 (TOTAS-Gibbs),e,13.9099,348.7979,178.1556,6.577155,0.0584315,0.56058990,154.0056,07/11.0/2022,2000,g 12.5,4.0
# From MPC109141
P/2015 D5 (Kowalski),e,20.5250,74.0670,39.7071,8.957448,0.0367644,0.48951576,111.1659,07/11.0/2022,2000,g  9.0,4.0
# From MPC 96866
P/2015 D6 (Lemmon-PANSTARRS),e,20.2035,45.8942,125.0560,7.138258,0.0516792,0.36125944,132.8412,07/11.0/2022,2000,g 10.5,4.0
# From MPEC 2022-L66
C/2015 F4 (Jacques),e,48.6876,285.9151,36.4264,121.7716,0.0007335,0.98649100,0.0000,08/12.9861/2015,2000,g 11.0,4.0
# From MPEC 2021-P47
P/2015 HG16 (PANSTARRS),e,18.8036,57.7713,47.7016,4.765696,0.0947359,0.35233743,281.0677,07/11.0/2022,2000,g 12.5,4.0
# From MPC 95213
P/2015 K5 (PANSTARRS),e,39.9445,134.1961,106.3458,6.725446,0.0565096,0.55221574,146.6960,07/11.0/2022,2000,g 13.5,4.0
# From MPC107684
